neo_example = {
    "links": {
        "self": "http://www.neowsapp.com/rest/v1/neo/2465633?api_key=DEMO_KEY"
    },
    "id": "2465633",
    "neo_reference_id": "2465633",
    "name": "465633 (2009 JR5)",
    "nasa_jpl_url": "http://ssd.jpl.nasa.gov/sbdb.cgi?sstr=2465633",
    "absolute_magnitude_h": 20.36,
    "estimated_diameter": {
        "kilometers": {
        "estimated_diameter_min": 0.2251930467,
        "estimated_diameter_max": 0.5035469604
    },
    "meters": {
        "estimated_diameter_min": 225.1930466786,
        "estimated_diameter_max": 503.5469604336
    },
    "miles": {
        "estimated_diameter_min": 0.1399284286,
        "estimated_diameter_max": 0.3128894784
    },
    "feet": {
        "estimated_diameter_min": 738.8223552649,
        "estimated_diameter_max": 1652.0570096689
    }
    },
    "is_potentially_hazardous_asteroid": "true",
    "close_approach_data": [
        {
            "close_approach_date": "2015-09-08",
            "close_approach_date_full": "2015-Sep-08 20:28",
            "epoch_date_close_approach": 1441744080000,
            "relative_velocity": {
                "kilometers_per_second": "18.1279547773",
                "kilometers_per_hour": "65260.6371983344",
                "miles_per_hour": "40550.4220413761"
            },
        "miss_distance": {
            "astronomical": "0.3027478814",
            "lunar": "117.7689258646",
            "kilometers": "45290438.204452618",
            "miles": "28142173.3303294084"
        },
        "orbiting_body": "Earth"
        }
    ],
    "is_sentry_object": "false"
},
{
    "links": {},
    "id": "2000719",
    "neo_reference_id": "2000719",
    "name": "719 Albert (A911 TB)",
    "name_limited": "Albert",
    "designation": "719",
    "nasa_jpl_url": "http://ssd.jpl.nasa.gov/sbdb.cgi?sstr=2000719",
    "absolute_magnitude_h": 15.51,
    "estimated_diameter": {
        "kilometers": {
            "estimated_diameter_min": 2.1016237932,
            "estimated_diameter_max": 4.6993736648
        },
        "meters": {
            "estimated_diameter_min": 2101.6237932235,
            "estimated_diameter_max": 4699.3736647788
        },
        "miles": {
            "estimated_diameter_min": 1.305888078,
            "estimated_diameter_max": 2.9200545135
        },
        "feet": {
            "estimated_diameter_min": 6895.0914057595,
            "estimated_diameter_max": 15417.8930943528
        }
    },
    "is_potentially_hazardous_asteroid": "false",
    "close_approach_data": [
        {
            "close_approach_date": "1909-08-21",
            "close_approach_date_full": "1909-Aug-21 15:04",
            "epoch_date_close_approach": -1904892960000,
            "relative_velocity": {
                "kilometers_per_second": "3.4460289899",
                "kilometers_per_hour": "12405.7043636364",
                "miles_per_hour": "7708.4222475051"
            },
            "miss_distance": {
                "astronomical": "1.7087743006",
                "lunar": "664.7132029334",
                "kilometers": "255628995.680499722",
                "miles": "158840492.3843592836"
            },
            "orbiting_body": "Juptr"
        },
        {
            "close_approach_date": "1911-09-08",
            "close_approach_date_full": "1911-Sep-08 08:15",
            "epoch_date_close_approach": -1840290300000,
            "relative_velocity": {
                "kilometers_per_second": "7.1848440125",
                "kilometers_per_hour": "25865.4384449097",
                "miles_per_hour": "16071.7775715051"
            },
            "miss_distance": {
                "astronomical": "0.2054816613",
                "lunar": "79.9323662457",
                "kilometers": "30739618.854541431",
                "miles": "19100713.4443605078"
            },
            "orbiting_body": "Earth"
        },
    ],
    "orbital_data": {
        "orbit_id": "221",
        "orbit_determination_date": "2021-09-24 05:50:38",
        "first_observation_date": "1911-10-04",
        "last_observation_date": "2021-04-17",
        "data_arc_in_days": 40008,
        "observations_used": 1894,
        "orbit_uncertainty": "0",
        "minimum_orbit_intersection": ".202582",
        "jupiter_tisserand_invariant": "3.141",
        "epoch_osculation": "2459600.5",
        "eccentricity": ".5469586853330971",
        "semi_major_axis": "2.63750535267235",
        "inclination": "11.57526970278196",
        "ascending_node_longitude": "183.8552591536149",
        "orbital_period": "1564.546413623767",
        "perihelion_distance": "1.194898892415675",
        "perihelion_argument": "156.2275765643465",
        "aphelion_distance": "4.080111812929026",
        "perihelion_time": "2459956.011943464095",
        "mean_anomaly": "278.1971857577304",
        "mean_motion": ".2300986387269753",
        "equinox": "J2000",
        "orbit_class": {
            "orbit_class_type": "AMO",
            "orbit_class_description": "Near-Earth asteroid orbits similar to that of 1221 Amor",
            "orbit_class_range": "1.017 AU < q (perihelion) < 1.3 AU"
        }
    },
    "is_sentry_object": "false"
}
